{
    "links": {
        "self": "http://www.neowsapp.com/rest/v1/neo/3755500?api_key=iIulBulltgU6a56xZRHN4H3l9WmuAYTsLGpBGhQ2"
    },
    "id": "3755500",
    "neo_reference_id": "3755500",
    "name": "(2016 NE39)",
    "designation": "2016 NE39",
    "nasa_jpl_url": "http://ssd.jpl.nasa.gov/sbdb.cgi?sstr=3755500",
    "absolute_magnitude_h": 23.5,
    "estimated_diameter": {
        "kilometers": {
            "estimated_diameter_min": 0.0530340723,
            "estimated_diameter_max": 0.1185877909
        },
        "meters": {
            "estimated_diameter_min": 53.0340723319,
            "estimated_diameter_max": 118.5877908577
        },
        "miles": {
            "estimated_diameter_min": 0.0329538346,
            "estimated_diameter_max": 0.0736870142
        },
        "feet": {
            "estimated_diameter_min": 173.9963058693,
            "estimated_diameter_max": 389.0675677576
        }
    },
    "is_potentially_hazardous_asteroid": false,
    "close_approach_data": [
        {
            "close_approach_date": "1919-01-14",
            "close_approach_date_full": "1919-Jan-14 18:26",
            "epoch_date_close_approach": -1608269640000,
            "relative_velocity": {
                "kilometers_per_second": "24.6921581324",
                "kilometers_per_hour": "88891.7692767084",
                "miles_per_hour": "55233.8885264081"
            },
            "miss_distance": {
                "astronomical": "0.1374810994",
                "lunar": "53.4801476666",
                "kilometers": "20566879.635498278",
                "miles": "12779666.4044931164"
            },
            "orbiting_body": "Venus"
        },
        {
            "close_approach_date": "1958-10-04",
            "close_approach_date_full": "1958-Oct-04 05:18",
            "epoch_date_close_approach": -354825720000,
            "relative_velocity": {
                "kilometers_per_second": "17.9679217316",
                "kilometers_per_hour": "64684.5182338205",
                "miles_per_hour": "40192.4441214536"
            },
            "miss_distance": {
                "astronomical": "0.4087564631",
                "lunar": "159.0062641459",
                "kilometers": "61149096.228493597",
                "miles": "37996286.4851697586"
            },
            "orbiting_body": "Earth"
        },
        {
            "close_approach_date": "1960-07-11",
            "close_approach_date_full": "1960-Jul-11 18:50",
            "epoch_date_close_approach": -298962600000,
            "relative_velocity": {
                "kilometers_per_second": "23.5523311352",
                "kilometers_per_hour": "84788.3920866469",
                "miles_per_hour": "52684.2095162835"
            },
            "miss_distance": {
                "astronomical": "0.1117468999",
                "lunar": "43.4695440611",
                "kilometers": "16717098.204143213",
                "miles": "10387523.1482058194"
            },
            "orbiting_body": "Venus"
        },
        {
            "close_approach_date": "2016-07-26",
            "close_approach_date_full": "2016-Jul-26 12:25",
            "epoch_date_close_approach": 1469535900000,
            "relative_velocity": {
                "kilometers_per_second": "18.2303187523",
                "kilometers_per_hour": "65629.1475081122",
                "miles_per_hour": "40779.4000169156"
            },
            "miss_distance": {
                "astronomical": "0.017039887",
                "lunar": "6.628516043",
                "kilometers": "2549130.80024069",
                "miles": "1583956.430233922"
            },
            "orbiting_body": "Earth"
        }
    ],
    "orbital_data": {
        "orbit_id": "3",
        "orbit_determination_date": "2017-04-06 08:24:56",
        "first_observation_date": "2016-07-10",
        "last_observation_date": "2016-07-16",
        "data_arc_in_days": 6,
        "observations_used": 34,
        "orbit_uncertainty": "9",
        "minimum_orbit_intersection": ".00643544",
        "jupiter_tisserand_invariant": "4.543",
        "epoch_osculation": "2457584.5",
        "eccentricity": ".6061375496512126",
        "semi_major_axis": "1.399470701883572",
        "inclination": "1.414639569703906",
        "ascending_node_longitude": "108.1406510267294",
        "orbital_period": "604.7058126091881",
        "perihelion_distance": ".5511989598352011",
        "perihelion_argument": "297.041780287877",
        "aphelion_distance": "2.247742443931942",
        "perihelion_time": "2457650.127205773104",
        "mean_anomaly": "320.9301025628037",
        "mean_motion": ".5953308079620897",
        "equinox": "J2000",
        "orbit_class": {
            "orbit_class_type": "APO",
            "orbit_class_description": "Near-Earth asteroid orbits which cross the Earth’s orbit similar to that of 1862 Apollo",
            "orbit_class_range": "a (semi-major axis) > 1.0 AU; q (perihelion) < 1.017 AU"
        }
    },
    "is_sentry_object": false
}